HST                     
1 20580U 90037B   26068.15977042  .00009063  00000+0  30023-3 0  9999
2 20580  28.4717  43.6133 0001837 120.9992 239.0785 15.29473555773239
STARLINK-35636          
1 66160U 25240Q   26068.28988450  .00028418  00000+0  96814-3 0  9991
2 66160  53.1594  64.9254 0001259  85.3550 274.7594 15.30193151 21922
